start=new Date('2022-12-26T00:00:00.000Z').valueOf();
sats=[{"MEAN_MOTION":"15.06391792","MEAN_MOTION_DOT":"-0.00000667","PERIAPSIS":"545.913","INCLINATION":"53.0556","RCS_SIZE":"LARGE","CLASSIFICATION_TYPE":"U","MEAN_ELEMENT_THEORY":"SGP4","MEAN_MOTION_DDOT":"0.0000000000000","ECCENTRICITY":"0.00019140","REF_FRAME":"TEME","COUNTRY_CODE":"US","RA_OF_ASC_NODE":"69.6227","GP_ID":"221449698","CENTER_NAME":"EARTH","OBJECT_TYPE":"PAYLOAD","FILE":"3722315","SEMIMAJOR_AXIS":"6925.374","LAUNCH_DATE":"2020-06-13","ELEMENT_SET_NO":"999","SITE":"AFETR","DECAY_DATE":null,"PERIOD":"95.593","OBJECT_ID":"2020-038W","EPOCH":"2022-12-25T13:00:09.774720","NORAD_CAT_ID":"45750","TLE_LINE2":"2 45750  53.0556  69.6227 0001914  40.2880 319.8250 15.06391792140114","REV_AT_EPOCH":"14011","MEAN_ANOMALY":"319.8250","EPHEMERIS_TYPE":"0","ARG_OF_PERICENTER":"40.2880","OBJECT_NAME":"STARLINK-1391","APOAPSIS":"548.564","TIME_SYSTEM":"UTC","BSTAR":"-0.00002588800000","TLE_LINE1":"1 45750U 20038W   22359.54177980 -.00000667  00000-0 -25888-4 0  9992"},{"MEAN_MOTION":"15.06394344","CLASSIFICATION_TYPE":"U","PERIAPSIS":"545.508","RCS_SIZE":"LARGE","INCLINATION":"53.0554","MEAN_MOTION_DOT":"0.00000124","REF_FRAME":"TEME","ECCENTRICITY":"0.00024880","MEAN_MOTION_DDOT":"0.0000000000000","MEAN_ELEMENT_THEORY":"SGP4","GP_ID":"221447948","RA_OF_ASC_NODE":"69.0503","COUNTRY_CODE":"US","LAUNCH_DATE":"2020-06-13","SEMIMAJOR_AXIS":"6925.366","FILE":"3722315","OBJECT_TYPE":"PAYLOAD","CENTER_NAME":"EARTH","REV_AT_EPOCH":"14013","NORAD_CAT_ID":"45751","TLE_LINE2":"2 45751  53.0554  69.0503 0002488  29.0377 331.0750 15.06394344140136","EPOCH":"2022-12-25T16:05:56.301792","ELEMENT_SET_NO":"999","SITE":"AFETR","DECAY_DATE":null,"PERIOD":"95.592","OBJECT_ID":"2020-038X","EPHEMERIS_TYPE":"0","MEAN_ANOMALY":"331.0750","APOAPSIS":"548.954","TIME_SYSTEM":"UTC","BSTAR":"0.00002724700000","TLE_LINE1":"1 45751U 20038X   22359.67079053  .00000124  00000-0  27247-4 0  9996","OBJECT_NAME":"STARLINK-1464","ARG_OF_PERICENTER":"29.0377"},{"REF_FRAME":"TEME","ECCENTRICITY":"0.00022040","MEAN_MOTION_DDOT":"0.0000000000000","MEAN_ELEMENT_THEORY":"SGP4","GP_ID":"221448198","RA_OF_ASC_NODE":"69.5758","COUNTRY_CODE":"US","MEAN_MOTION":"15.06398210","CLASSIFICATION_TYPE":"U","PERIAPSIS":"545.693","RCS_SIZE":"LARGE","INCLINATION":"53.0559","MEAN_MOTION_DOT":"-0.00000201","EPHEMERIS_TYPE":"0","MEAN_ANOMALY":"328.3317","APOAPSIS":"548.745","TIME_SYSTEM":"UTC","BSTAR":"0.00000539110000","TLE_LINE1":"1 45753U 20038Z   22359.54915103 -.00000201  00000-0  53911-5 0  9994","OBJECT_NAME":"STARLINK-1476","ARG_OF_PERICENTER":"31.7805","SEMIMAJOR_AXIS":"6925.354","LAUNCH_DATE":"2020-06-13","FILE":"3722315","OBJECT_TYPE":"PAYLOAD","CENTER_NAME":"EARTH","REV_AT_EPOCH":"14011","NORAD_CAT_ID":"45753","TLE_LINE2":"2 45753  53.0559  69.5758 0002204  31.7805 328.3317 15.06398210140114","EPOCH":"2022-12-25T13:10:46.648992","ELEMENT_SET_NO":"999","DECAY_DATE":null,"OBJECT_ID":"2020-038Z","SITE":"AFETR","PERIOD":"95.592"},{"EPHEMERIS_TYPE":"0","MEAN_ANOMALY":"320.4068","ARG_OF_PERICENTER":"39.7066","TLE_LINE1":"1 45754U 20038AA  22359.55284736 -.00001316  00000-0 -69467-4 0  9998","APOAPSIS":"548.628","BSTAR":"-0.00006946700000","TIME_SYSTEM":"UTC","OBJECT_NAME":"STARLINK-1477","OBJECT_TYPE":"PAYLOAD","CENTER_NAME":"EARTH","SEMIMAJOR_AXIS":"6925.383","LAUNCH_DATE":"2020-06-13","FILE":"3722315","EPOCH":"2022-12-25T13:16:06.011904","DECAY_DATE":null,"SITE":"AFETR","PERIOD":"95.593","OBJECT_ID":"2020-038AA","ELEMENT_SET_NO":"999","REV_AT_EPOCH":"14011","TLE_LINE2":"2 45754  53.0566  69.5691 0001992  39.7066 320.4068 15.06388610140118","NORAD_CAT_ID":"45754","ECCENTRICITY":"0.00019920","MEAN_MOTION_DDOT":"0.0000000000000","MEAN_ELEMENT_THEORY":"SGP4","REF_FRAME":"TEME","RA_OF_ASC_NODE":"69.5691","COUNTRY_CODE":"US","GP_ID":"221449448","MEAN_MOTION":"15.06388610","INCLINATION":"53.0566","RCS_SIZE":"LARGE","PERIAPSIS":"545.869","MEAN_MOTION_DOT":"-0.00001316","CLASSIFICATION_TYPE":"U"},{"REF_FRAME":"TEME","MEAN_ELEMENT_THEORY":"SGP4","MEAN_MOTION_DDOT":"0.0000000000000","ECCENTRICITY":"0.00021970","GP_ID":"221449199","COUNTRY_CODE":"US","RA_OF_ASC_NODE":"67.9925","MEAN_MOTION":"15.06397000","CLASSIFICATION_TYPE":"U","MEAN_MOTION_DOT":"-0.00000794","PERIAPSIS":"545.701","INCLINATION":"53.0562","RCS_SIZE":"LARGE","MEAN_ANOMALY":"324.3595","EPHEMERIS_TYPE":"0","OBJECT_NAME":"STARLINK-1478","BSTAR":"-0.00003437100000","APOAPSIS":"548.744","TIME_SYSTEM":"UTC","TLE_LINE1":"1 45755U 20038AB  22359.90300141 -.00000794  00000-0 -34371-4 0  9992","ARG_OF_PERICENTER":"35.7540","FILE":"3722315","SEMIMAJOR_AXIS":"6925.358","LAUNCH_DATE":"2020-06-13","CENTER_NAME":"EARTH","OBJECT_TYPE":"PAYLOAD","NORAD_CAT_ID":"45755","TLE_LINE2":"2 45755  53.0562  67.9925 0002197  35.7540 324.3595 15.06397000140153","REV_AT_EPOCH":"14015","ELEMENT_SET_NO":"999","DECAY_DATE":null,"SITE":"AFETR","PERIOD":"95.592","OBJECT_ID":"2020-038AB","EPOCH":"2022-12-25T21:40:19.321824"},{"COUNTRY_CODE":"US","RA_OF_ASC_NODE":"68.0137","GP_ID":"221448448","MEAN_ELEMENT_THEORY":"SGP4","ECCENTRICITY":"0.00020400","MEAN_MOTION_DDOT":"0.0000000000000","REF_FRAME":"TEME","MEAN_MOTION_DOT":"-0.00000062","INCLINATION":"53.0549","RCS_SIZE":"LARGE","PERIAPSIS":"545.820","CLASSIFICATION_TYPE":"U","MEAN_MOTION":"15.06393783","ARG_OF_PERICENTER":"44.3486","OBJECT_NAME":"STARLINK-1484","TLE_LINE1":"1 45756U 20038AC  22359.89837081 -.00000062  00000-0  14725-4 0  9997","BSTAR":"0.00001472500000","APOAPSIS":"548.645","TIME_SYSTEM":"UTC","MEAN_ANOMALY":"315.7666","EPHEMERIS_TYPE":"0","DECAY_DATE":null,"SITE":"AFETR","PERIOD":"95.593","OBJECT_ID":"2020-038AC","ELEMENT_SET_NO":"999","EPOCH":"2022-12-25T21:33:39.237984","TLE_LINE2":"2 45756  53.0549  68.0137 0002040  44.3486 315.7666 15.06393783140155","NORAD_CAT_ID":"45756","REV_AT_EPOCH":"14015","CENTER_NAME":"EARTH","OBJECT_TYPE":"PAYLOAD","FILE":"3722315","LAUNCH_DATE":"2020-06-13","SEMIMAJOR_AXIS":"6925.368"},{"REF_FRAME":"TEME","MEAN_ELEMENT_THEORY":"SGP4","ECCENTRICITY":"0.00021530","MEAN_MOTION_DDOT":"0.0000000000000","GP_ID":"221448698","COUNTRY_CODE":"US","RA_OF_ASC_NODE":"69.4318","MEAN_MOTION":"15.06398675","CLASSIFICATION_TYPE":"U","MEAN_MOTION_DOT":"0.00000757","INCLINATION":"53.0565","RCS_SIZE":"LARGE","PERIAPSIS":"545.727","MEAN_ANOMALY":"326.6238","EPHEMERIS_TYPE":"0","OBJECT_NAME":"STARLINK-1486","TLE_LINE1":"1 45757U 20038AD  22359.58600795  .00000757  00000-0  69727-4 0  9996","BSTAR":"0.00006972700000","APOAPSIS":"548.709","TIME_SYSTEM":"UTC","ARG_OF_PERICENTER":"33.4886","FILE":"3722315","LAUNCH_DATE":"2020-06-13","SEMIMAJOR_AXIS":"6925.353","CENTER_NAME":"EARTH","OBJECT_TYPE":"PAYLOAD","TLE_LINE2":"2 45757  53.0565  69.4318 0002153  33.4886 326.6238 15.06398675140104","NORAD_CAT_ID":"45757","REV_AT_EPOCH":"14010","SITE":"AFETR","DECAY_DATE":null,"PERIOD":"95.592","OBJECT_ID":"2020-038AD","ELEMENT_SET_NO":"999","EPOCH":"2022-12-25T14:03:51.086880"},{"INCLINATION":"53.0563","RCS_SIZE":"LARGE","PERIAPSIS":"545.633","MEAN_MOTION_DOT":"0.00005060","CLASSIFICATION_TYPE":"U","MEAN_MOTION":"15.06428915","RA_OF_ASC_NODE":"69.4555","COUNTRY_CODE":"US","GP_ID":"221448949","ECCENTRICITY":"0.00021540","MEAN_MOTION_DDOT":"0.0000000000000","MEAN_ELEMENT_THEORY":"SGP4","REF_FRAME":"TEME","EPOCH":"2022-12-25T13:53:10.891392","SITE":"AFETR","DECAY_DATE":null,"OBJECT_ID":"2020-038AE","PERIOD":"95.590","ELEMENT_SET_NO":"999","REV_AT_EPOCH":"14010","TLE_LINE2":"2 45758  53.0563  69.4555 0002154  42.7124 317.4032 15.06428915140106","NORAD_CAT_ID":"45758","OBJECT_TYPE":"PAYLOAD","CENTER_NAME":"EARTH","LAUNCH_DATE":"2020-06-13","SEMIMAJOR_AXIS":"6925.260","FILE":"3722315","ARG_OF_PERICENTER":"42.7124","TLE_LINE1":"1 45758U 20038AE  22359.57859828  .00005060  00000-0  35806-3 0  9991","TIME_SYSTEM":"UTC","APOAPSIS":"548.617","BSTAR":"0.00035806000000","OBJECT_NAME":"STARLINK-1487","EPHEMERIS_TYPE":"0","MEAN_ANOMALY":"317.4032"},{"MEAN_ANOMALY":"314.2867","EPHEMERIS_TYPE":"0","OBJECT_NAME":"STARLINK-1493","TLE_LINE1":"1 45759U 20038AF  22359.89194496 -.00000386  00000-0 -69837-5 0  9991","TIME_SYSTEM":"UTC","APOAPSIS":"548.503","BSTAR":"-0.00000698370000","ARG_OF_PERICENTER":"45.8276","FILE":"3722315","LAUNCH_DATE":"2020-06-13","SEMIMAJOR_AXIS":"6925.343","CENTER_NAME":"EARTH","OBJECT_TYPE":"PAYLOAD","TLE_LINE2":"2 45759  53.0545  68.0549 0001870  45.8276 314.2867 15.06401845140150","NORAD_CAT_ID":"45759","REV_AT_EPOCH":"14015","DECAY_DATE":null,"SITE":"AFETR","PERIOD":"95.592","OBJECT_ID":"2020-038AF","ELEMENT_SET_NO":"999","EPOCH":"2022-12-25T21:24:24.044544","REF_FRAME":"TEME","MEAN_ELEMENT_THEORY":"SGP4","ECCENTRICITY":"0.00018700","MEAN_MOTION_DDOT":"0.0000000000000","GP_ID":"221449699","COUNTRY_CODE":"US","RA_OF_ASC_NODE":"68.0549","MEAN_MOTION":"15.06401845","CLASSIFICATION_TYPE":"U","MEAN_MOTION_DOT":"-0.00000386","INCLINATION":"53.0545","RCS_SIZE":"LARGE","PERIAPSIS":"545.913"},{"ECCENTRICITY":"0.00021640","MEAN_MOTION_DDOT":"0.0000000000000","MEAN_ELEMENT_THEORY":"SGP4","REF_FRAME":"TEME","RA_OF_ASC_NODE":"68.0198","COUNTRY_CODE":"US","GP_ID":"221447949","MEAN_MOTION":"15.06393624","INCLINATION":"53.0563","RCS_SIZE":"LARGE","PERIAPSIS":"545.734","MEAN_MOTION_DOT":"0.00000109","CLASSIFICATION_TYPE":"U","EPHEMERIS_TYPE":"0","MEAN_ANOMALY":"324.1414","ARG_OF_PERICENTER":"35.9721","TLE_LINE1":"1 45760U 20038AG  22359.89563079  .00000109  00000-0  26217-4 0  9995","APOAPSIS":"548.732","BSTAR":"0.00002621700000","TIME_SYSTEM":"UTC","OBJECT_NAME":"STARLINK-1494","OBJECT_TYPE":"PAYLOAD","CENTER_NAME":"EARTH","SEMIMAJOR_AXIS":"6925.368","LAUNCH_DATE":"2020-06-13","FILE":"3722315","EPOCH":"2022-12-25T21:29:42.500256","DECAY_DATE":null,"PERIOD":"95.593","SITE":"AFETR","OBJECT_ID":"2020-038AG","ELEMENT_SET_NO":"999","REV_AT_EPOCH":"14016","TLE_LINE2":"2 45760  53.0563  68.0198 0002164  35.9721 324.1414 15.06393624140168","NORAD_CAT_ID":"45760"}];
